OBJECT_NAME,OBJECT_ID,EPOCH,MEAN_MOTION,ECCENTRICITY,INCLINATION,RA_OF_ASC_NODE,ARG_OF_PERICENTER,MEAN_ANOMALY,EPHEMERIS_TYPE,CLASSIFICATION_TYPE,NORAD_CAT_ID,ELEMENT_SET_NO,REV_AT_EPOCH,BSTAR,MEAN_MOTION_DOT,MEAN_MOTION_DDOT
PACE-1,2021-059AG,2026-07-10T23:59:24.733248,15.84551910,.00032347,97.6745,32.9101,192.6042,167.5147,0,U,48909,999,28156,.36329564E-3,.83467E-3,0
YAM-3,2021-059AN,2026-07-12T04:47:01.990176,15.49102090,.0003814,97.6992,21.7995,257.5357,102.5467,0,U,48915,999,28086,.13368E-3,.7158E-4,0
FARADAY_PHOENIX,2021-059AX,2026-07-12T04:45:50.018112,15.86139540,.0005888,97.6778,34.1555,206.2893,153.8079,0,U,48924,999,28161,.56676E-3,.14163E-2,0
DEMO8 (TENZING),2021-059CA,2026-07-12T00:12:49.010112,15.55941011,.0005575,97.7017,28.3352,245.6215,114.4457,0,U,48951,999,28116,.19518E-3,.13446E-3,0
FENGYUN 3E,2021-062A,2026-07-12T03:31:38.384256,14.19905904,.0002396,98.7501,196.2767,45.1212,315.0158,0,U,49008,999,26012,.33274E-4,.27E-6,0
ISS (NAUKA),2021-066A,2026-07-12T03:41:07.946016,15.48987212,.0006701,51.6303,176.5328,285.7692,74.2557,0,U,49044,999,61075,.96681E-4,.4878E-4,0
STARLINK-3100,2021-082Q,2026-07-11T19:23:50.573472,14.98332551,.00034477,69.9999,341.4987,274.4329,85.6436,0,U,49144,999,26457,.4771669E-5,-.36E-6,0
CUTE,2021-088D,2026-07-11T20:06:10.559808,16.11168108,.00061674,97.3993,294.7476,311.9579,48.1179,0,U,49263,999,26649,.11312705E-2,.1120795E-1,.79581553E-3
2021-091B,2021-091B,2026-07-12T05:31:59.487168,15.18673010,.0012237,97.4480,20.4260,319.7521,40.2806,0,U,49316,999,26278,.75686E-4,.1503E-4,0
SDGSAT 1,2021-100A,2026-07-12T04:39:39.984192,15.19229957,.0009457,97.2626,239.1874,173.3642,186.7720,0,U,49387,999,25971,.96411E-4,.1967E-4,0
TEIKYOSAT-4 (OORURI),2021-102B,2026-07-11T15:31:25.501152,15.09590713,.00113984,97.3665,221.1793,201.2231,158.8527,0,U,49396,999,25641,.63567447E-4,.961E-5,0
Z-SAT,2021-102E,2026-07-12T04:12:17.286912,15.18449562,.0017293,97.3319,227.7405,154.6242,205.5845,0,U,49399,999,25723,.17075E-3,.3463E-4,0
HIBARI,2021-102F,2026-07-12T02:06:27.768096,15.32235957,.0013321,97.3229,238.7127,110.8335,249.4335,0,U,49400,999,25800,.23231E-3,.7172E-4,0
KOSEN-1,2021-102H,2026-07-12T04:10:34.749120,15.27185924,.00153,97.3174,234.8487,117.0746,243.2057,0,U,49402,999,25783,.16706E-3,.4393E-4,0
GLOBAL-14,2021-106A,2026-07-12T04:43:11.188992,15.51722687,.001729,42.0026,142.3164,204.0869,155.9168,0,U,49469,999,26201,.26617E-3,.16087E-3,0
GAOFEN-3 02,2021-109A,2026-07-12T03:55:43.176288,14.42219777,.000135,98.4095,200.9057,284.9021,75.2019,0,U,49495,999,24391,.42107E-5,-.3E-6,0
GLOBAL-12,2021-115BA,2026-07-10T14:34:24.220992,15.55134134,.00026761,53.1957,291.8070,67.4277,292.7018,0,U,49772,999,25954,.40417221E-3,.27333E-3,0
GLOBAL-13,2021-115BB,2026-07-11T14:41:58.831008,15.47016684,.00009942,53.1984,298.3929,153.6296,206.4764,0,U,49773,999,25954,.23738952E-3,.1177E-3,0
GLOBAL-17,2021-120A,2026-07-12T04:06:07.254720,15.53609667,.0013432,41.9944,260.2726,67.2439,292.9824,0,U,49949,999,25878,.26262E-3,.16966E-3,0
GLOBAL-16,2021-120B,2026-07-11T15:21:02.577888,15.51370265,.00117129,41.9948,267.6481,52.1360,308.0542,0,U,49950,999,25864,.25460087E-3,.15125E-3,0
XW-3 (CAS-9),2021-131B,2026-07-12T04:25:10.742304,14.41380016,.0004742,98.4985,285.4389,38.6622,321.4906,0,U,50466,999,23871,.68108E-4,.176E-5,0
ION SCV-004,2022-002K,2026-07-12T00:18:17.743968,15.30688886,.000558,97.2824,250.2064,261.9472,98.1136,0,U,50993,999,24909,.11036E-3,.3199E-4,0
ETV-A1,2022-002CE,2026-07-12T03:28:25.597344,15.41192350,.0003664,97.2872,259.3845,240.3094,119.7788,0,U,51060,999,24968,.17616E-3,.7226E-4,0
BRO-5,2022-002CF,2026-07-12T03:17:26.971872,15.48759203,.0005047,97.2993,267.0489,215.2072,144.8846,0,U,51061,999,25011,.37598E-3,.20114E-3,0
LUDI TANCE 1-01A (L-SAR 01A),2022-007A,2026-07-12T04:32:57.338592,14.88417301,.000161,97.8110,200.2544,91.1740,268.9662,0,U,51284,999,24219,.3962E-4,.313E-5,0
LUDI TANCE 1-01B (L-SAR 01B),2022-018A,2026-07-12T03:44:32.721792,14.88411858,.0001629,97.8109,200.2193,91.5908,268.5495,0,U,51822,999,23742,.41982E-4,.335E-5,0
2022-023F,2022-023F,2026-07-12T04:17:14.534016,15.17939789,.0132837,63.4438,188.5236,341.6295,18.0042,0,U,51951,999,24150,.23271E-3,.5724E-4,0
