PACE-1                  
1 48909U 21059AG  26191.99959182  .00083467  00000+0  36330-3 0  9993
2 48909  97.6745  32.9101 0003234 192.6042 167.5147 15.84551910281564
YAM-3                   
1 48915U 21059AN  26193.19932859  .00007158  00000+0  13368-3 0  9995
2 48915  97.6992  21.7995 0003814 257.5357 102.5467 15.49102090280864
FARADAY_PHOENIX         
1 48924U 21059AX  26193.19849558  .00141630  00000+0  56676-3 0  9991
2 48924  97.6778  34.1555 0005888 206.2893 153.8079 15.86139540281618
DEMO8 (TENZING)         
1 48951U 21059CA  26193.00890058  .00013446  00000+0  19518-3 0  9999
2 48951  97.7017  28.3352 0005575 245.6215 114.4457 15.55941011281166
FENGYUN 3E              
1 49008U 21062A   26193.14697204  .00000027  00000+0  33274-4 0  9997
2 49008  98.7501 196.2767 0002396  45.1212 315.0158 14.19905904260122
ISS (NAUKA)             
1 49044U 21066A   26193.15356419  .00004878  00000+0  96681-4 0  9991
2 49044  51.6303 176.5328 0006701 285.7692  74.2557 15.48987212610752
STARLINK-3100           
1 49144U 21082Q   26192.80822423 -.00000036  00000+0  47717-5 0  9994
2 49144  69.9999 341.4987 0003447 274.4329  85.6436 14.98332551264577
CUTE                    
1 49263U 21088D   26192.83762222  .01120795  79582-3  11313-2 0  9995
2 49263  97.3993 294.7476 0006167 311.9579  48.1179 16.11168108266490
2021-091B               
1 49316U 21091B   26193.23054962  .00001503  00000+0  75686-4 0  9992
2 49316  97.4480  20.4260 0012237 319.7521  40.2806 15.18673010262781
SDGSAT 1                
1 49387U 21100A   26193.19421278  .00001967  00000+0  96411-4 0  9997
2 49387  97.2626 239.1874 0009457 173.3642 186.7720 15.19229957259715
TEIKYOSAT-4 (OORURI)    
1 49396U 21102B   26192.64682293  .00000961  00000+0  63567-4 0  9993
2 49396  97.3665 221.1793 0011398 201.2231 158.8527 15.09590713256411
Z-SAT                   
1 49399U 21102E   26193.17520008  .00003463  00000+0  17075-3 0  9992
2 49399  97.3319 227.7405 0017293 154.6242 205.5845 15.18449562257234
HIBARI                  
1 49400U 21102F   26193.08782139  .00007172  00000+0  23231-3 0  9992
2 49400  97.3229 238.7127 0013321 110.8335 249.4335 15.32235957258009
KOSEN-1                 
1 49402U 21102H   26193.17401330  .00004393  00000+0  16706-3 0  9996
2 49402  97.3174 234.8487 0015300 117.0746 243.2057 15.27185924257835
GLOBAL-14               
1 49469U 21106A   26193.19665728  .00016087  00000+0  26617-3 0  9993
2 49469  42.0026 142.3164 0017290 204.0869 155.9168 15.51722687262017
GAOFEN-3 02             
1 49495U 21109A   26193.16369417 -.00000030  00000+0  42107-5 0  9994
2 49495  98.4095 200.9057 0001350 284.9021  75.2019 14.42219777243913
GLOBAL-12               
1 49772U 21115BA  26191.60722478  .00027333  00000+0  40417-3 0  9990
2 49772  53.1957 291.8070 0002676  67.4277 292.7018 15.55134134259548
GLOBAL-13               
1 49773U 21115BB  26192.61248647  .00011770  00000+0  23739-3 0  9990
2 49773  53.1984 298.3929 0000994 153.6296 206.4764 15.47016684259544
GLOBAL-17               
1 49949U 21120A   26193.17091730  .00016966  00000+0  26262-3 0  9998
2 49949  41.9944 260.2726 0013432  67.2439 292.9824 15.53609667258781
GLOBAL-16               
1 49950U 21120B   26192.63961317  .00015125  00000+0  25460-3 0  9992
2 49950  41.9948 267.6481 0011712  52.1360 308.0542 15.51370265258649
XW-3 (CAS-9)            
1 50466U 21131B   26193.18415211  .00000176  00000+0  68108-4 0  9993
2 50466  98.4985 285.4389 0004742  38.6622 321.4906 14.41380016238713
ION SCV-004             
1 50993U 22002K   26193.01270537  .00003199  00000+0  11036-3 0  9993
2 50993  97.2824 250.2064 0005580 261.9472  98.1136 15.30688886249093
ETV-A1                  
1 51060U 22002CE  26193.14474071  .00007226  00000+0  17616-3 0  9997
2 51060  97.2872 259.3845 0003664 240.3094 119.7788 15.41192350249687
BRO-5                   
1 51061U 22002CF  26193.13711773  .00020114  00000+0  37598-3 0  9992
2 51061  97.2993 267.0489 0005047 215.2072 144.8846 15.48759203250113
LUDI TANCE 1-01A (L-SA*)
1 51284U 22007A   26193.18955253  .00000313  00000+0  39620-4 0  9990
2 51284  97.8110 200.2544 0001610  91.1740 268.9662 14.88417301242199
LUDI TANCE 1-01B (L-SA*)
1 51822U 22018A   26193.15593428  .00000335  00000+0  41982-4 0  9997
2 51822  97.8109 200.2193 0001629  91.5908 268.5495 14.88411858237426
2022-023F               
1 51951U 22023F   26193.17864044  .00005724  00000+0  23271-3 0  9990
2 51951  63.4438 188.5236 0132837 341.6295  18.0042 15.17939789241504
